GPS BIIF-4              
1 39166U 13023A   26087.91205175 -.00000006  00000+0  00000+0 0  9992
2 39166  54.5680 272.2416 0141937  50.3073 310.9330  2.00563944 94276
INSAT-3D                
1 39216U 13038B   26087.99823779 -.00000357  00000+0  00000+0 0  9997
2 39216   1.7195  83.5474 0001579 246.6189 345.1445  1.00268917 46274
GPS BIIF-5              
1 39533U 14008A   26087.41311887 -.00000002  00000+0  00000+0 0  9993
2 39533  53.6397 152.6153 0083084 229.1635 130.1722  2.00554546 88061
LUCH 5V                 
1 39727U 14023A   26087.99133957 -.00000284  00000+0  00000+0 0  9990
2 39727   4.9365  70.5253 0002476 304.0122 263.4836  1.00272014 43556
GPS BIIF-6              
1 39741U 14026A   26087.19137739 -.00000084  00000+0  00000+0 0  9991
2 39741  56.5350 334.6726 0039518 325.7427  34.0463  2.00566865 86919
GPS BIIF-7              
1 40105U 14045A   26087.28045197  .00000041  00000+0  00000+0 0  9996
2 40105  55.2986  91.6863 0031377 119.9296 240.4172  2.00553048 84456
GSAT0201 (GALILEO 5)    
1 40128U 14050A   26085.95211835 -.00000004  00000+0  00000+0 0  9993
2 40128  48.9652 276.8011 1661372 176.1891 185.2559  1.85519926 76795
GSAT0202 (GALILEO 6)    
1 40129U 14050B   26087.82489357 -.00000022  00000+0  00000+0 0  9998
2 40129  48.9812 275.8093 1662657 176.9957 184.1399  1.85520686 78990
GPS BIIF-8              
1 40294U 14068A   26086.65813022 -.00000070  00000+0  00000+0 0  9993
2 40294  56.9354  34.0960 0063895  68.2397 292.4250  2.00571381 83575
GLONASS-K 2             
1 40315U 14075A   26084.30325579  .00000001  00000+0  00000+0 0  9993
2 40315  63.6158 193.2737 0021182 207.3153 152.5805  2.13101287 88064
GPS BIIF-9              
1 40534U 15013A   26086.29205244 -.00000029  00000+0  00000+0 0  9996
2 40534  53.1810 207.5638 0108792  39.9071 320.8617  2.00556171 80184
GSAT0203 (GALILEO 7)    
1 40544U 15017A   26086.67777373 -.00000097  00000+0  00000+0 0  9995
2 40544  56.8123 343.8202 0003036 318.8222  41.1887  1.70475469 67818
GSAT0204 (GALILEO 8)    
1 40545U 15017B   26086.34677115 -.00000097  00000+0  00000+0 0  9993
2 40545  56.8192 343.8470 0003314 290.4029  69.5952  1.70475336 30855
GPS BIIF-10             
1 40730U 15033A   26087.94791698 -.00000008  00000+0  00000+0 0  9999
2 40730  54.0465 270.3923 0114869  29.4809 331.1549  2.00560282 78384
METEOSAT-11 (MSG-4)     
1 40732U 15034A   26088.11705824  .00000045  00000+0  00000+0 0  9998
2 40732   3.0002  71.5321 0001774 285.0188 241.3418  1.00273915  6415
GSAT0205 (GALILEO 9)    
1 40889U 15045A   26086.36399919 -.00000011  00000+0  00000+0 0  9996
2 40889  54.9729 223.9518 0004152 269.7313  90.1696  1.67410754 65591
GSAT0206 (GALILEO 10)   
1 40890U 15045B   26086.92205734 -.00000016  00000+0  00000+0 0  9996
2 40890  54.9720 223.8461 0003014  48.8202 311.1530  1.70473776 65656
